TJS-23                  
1 67226U 25306A   26018.01557007  .00000040  00000+0  00000+0 0  9993
2 67226   5.9290 298.2601 0000917  73.1983 287.0482  1.00270944   385
CZ-5 R/B                
1 67227U 25306B   26017.76902967  .00007758  00000+0  20390-2 0  9994
2 67227  16.2505 289.6560 7577835 196.3739 108.5140  1.92580498   567
QPS-SAR-15              
1 67228U 25307A   26018.91650384  .00004917  00000+0  43090-3 0  9994
2 67228  42.0085 326.7373 0007720  99.3546 260.8152 14.97402484  4291
ELECTRON R/B            
1 67229U 25307B   26018.84321523  .01393839  79136-5  16087-2 0  9999
2 67229  41.9901 308.4278 0112787  89.7230 271.6554 15.96253570  4499
SPACEMOBILE-006         
1 67232U 25309A   26018.93174511 -.00000843  00000+0 -25517-4 0  9997
2 67232  52.9974 294.8522 0012027  41.0922 319.0975 15.17747154  3920
LVM3 R/B                
1 67233U 25309B   26018.96657099  .00007679  00000+0  36885-3 0  9999
2 67233  52.9299 294.0931 0012037  65.0006 295.2236 15.19733871  3936
2025-310A               
1 67234U 25310A   26018.99457193  .00000024  00000+0  10800-4 0  9995
2 67234  97.9665  28.4434 0002249 167.1793 192.9474 14.75704200  3629
SL-4 R/B                
1 67235U 25310B   26018.78831454  .00279252  24712-5  56237-3 0  9995
2 67235  97.9611  31.0421 0255210 348.7009  10.8579 15.61596523  3764
HULIANWANG DIGUI-128    
1 67236U 25311A   26018.87116323 -.00000017  00000+0  10671-3 0  9990
2 67236  50.0057 300.5666 0003108 337.5017  22.5744 13.88340181  3337
HULIANWANG DIGUI-129    
1 67237U 25311B   26018.72886334 -.00000022  00000+0  10227-3 0  9994
2 67237  50.0108 301.1467 0003027   4.8681 355.2246 13.88330463  3315
HULIANWANG DIGUI-130    
1 67238U 25311C   26017.94509087 -.00000017  00000+0  10729-3 0  9996
2 67238  50.0071 304.3181 0004384 339.5994  20.4728 13.87898371  3205
HULIANWANG DIGUI-131    
1 67239U 25311D   26018.88478562 -.00000023  00000+0  10397-3 0  9992
2 67239  50.0080 300.6215 0004019 346.4750  13.6039 13.87037266  3336
HULIANWANG DIGUI-132    
1 67240U 25311E   26018.87758271 -.00000030  00000+0  96666-4 0  9993
2 67240  50.0082 300.5884 0003423 356.4124   3.6749 13.87620035  3334
HULIANWANG DIGUI-133    
1 67241U 25311F   26018.80318778 -.00000012  00000+0  11107-3 0  9997
2 67241  50.0084 300.8639 0001683   5.9816 354.1101 13.87966490  3321
HULIANWANG DIGUI-134    
1 67242U 25311G   26018.94863008 -.00000017  00000+0  10777-3 0  9991
2 67242  50.0049 300.2835 0001142   9.1509 350.9409 13.87697504  3344
HULIANWANG DIGUI-135    
1 67243U 25311H   26017.94317414 -.00000025  00000+0  10080-3 0  9992
2 67243  50.0132 304.2671 0005437 228.6791 131.3640 13.88005054  3209
HULIANWANG DIGUI-136    
1 67244U 25311J   26018.72971603 -.00000016  00000+0  10811-3 0  9998
2 67244  50.0179 301.1616 0002882 342.4863  17.5936 13.88216636  3317
CZ-8A R/B               
1 67245U 25311K   26018.93294541  .00000008  00000+0  84465-4 0  9998
2 67245  50.0034 296.8629 0088979 164.6228 195.7415 14.12608661  3392
FENGYUN 4C              
1 67246U 25312A   26018.96542856 -.00000309  00000+0  00000+0 0  9991
2 67246   0.0675 237.7518 0002286  51.8800 309.2648  1.00263989   288
CZ-3B R/B               
1 67247U 25312B   26016.97827333  .00193198  25258-6  81148-3 0  9990
2 67247  28.4461 325.8546 7199052 192.6123 128.6519  2.44611885   510
2025-313A               
1 67248U 25313A   26018.96060171  .00001330  00000+0  13714-3 0  9993
2 67248  97.5623  94.8398 0280587  96.0999 267.2251 14.66805558  3145
2025-313B               
1 67249U 25313B   26018.93712905  .00003772  00000+0  28993-3 0  9997
2 67249  97.5315  94.9262 0297783 100.2478 263.2449 14.73221100  3150
2025-313C               
1 67250U 25313C   26018.91017734  .00014653  00000+0  13646-2 0  9993
2 67250  97.6360  95.5456 0162736 110.1977 251.6823 14.84784940  3175
2025-313D               
1 67251U 25313D   26018.91636229  .00002578  00000+0  22702-3 0  9997
2 67251  97.5870  95.5398 0152446 102.7430 259.0874 14.88762956  3180
ZORKIY-2M-VPE           
1 67252U 25313E   26018.91925462  .00008129  00000+0  36147-3 0  9994
2 67252  97.4109  96.0590 0011411 144.1137 216.0867 15.21703838  3250
AIST-2T 1               
1 67253U 25313F   26018.91218999  .00053690  00000+0  53424-3 0  9995
2 67253  97.1025  96.2740 0010611 161.2881 198.8772 15.65488383  3324
AIST-2T 2               
1 67254U 25313G   26018.91397194  .00046644  00000+0  47244-3 0  9995
2 67254  97.1025  96.2716 0010199 163.4948 196.6647 15.65074749  3310
2025-313H               
1 67255U 25313H   26018.92635258  .00002483  00000+0  17648-3 0  9991
2 67255  97.3088  95.1860 0091518 122.8537 238.1540 15.02185597  3215
SITRO-AIS-57            
1 67256U 25313J   26018.94415337  .00010293  00000+0  47964-3 0  9990
2 67256  97.4103  96.0209 0017235 161.9255 198.2597 15.19946879  3255
SITRO-AIS-59            
1 67257U 25313K   26018.94367614  .00010323  00000+0  48074-3 0  9992
2 67257  97.4108  96.0232 0016976 163.9521 196.2256 15.19971533  3251
SITRO-AIS-58            
1 67258U 25313L   26018.94321680  .00010107  00000+0  47019-3 0  9994
2 67258  97.4103  96.0220 0016920 163.2275 196.9523 15.20013307  3254
2025-313M               
1 67259U 25313M   26018.93977521  .00012775  00000+0  58820-3 0  9990
2 67259  97.4147  96.0500 0016119 161.7893 198.3923 15.20322672  3251
SITRO-AIS-60            
1 67260U 25313N   26018.94154738  .00007637  00000+0  35553-3 0  9999
2 67260  97.4112  96.0269 0016337 163.4165 196.7608 15.20086533  3255
2025-313P               
1 67261U 25313P   26018.93796037  .00016984  00000+0  77559-3 0  9990
2 67261  97.4148  96.0529 0015873 162.1233 198.0564 15.20544396  3252
2025-313Q               
1 67262U 25313Q   26018.93971716  .00011596  00000+0  53476-3 0  9996
2 67262  97.4115  96.0297 0015971 163.9533 196.2211 15.20294904  3256
DCS-1                   
1 67263U 25313R   26018.94012508  .00010142  00000+0  46900-3 0  9993
2 67263  97.4126  96.0444 0015956 162.9730 197.2044 15.20233763  3255
2025-313S               
1 67264U 25313S   26018.94120870  .00006431  00000+0  29997-3 0  9999
2 67264  97.4195  96.0449 0015954 167.9546 192.2073 15.20089210  3258
SITRO-TD-4              
1 67265U 25313T   26018.93971257  .00009573  00000+0  44263-3 0  9995
2 67265  97.4106  96.0389 0015878 163.7603 196.4145 15.20256810  3255
SITRO-AIS-65            
1 67266U 25313U   26018.93963395  .00009701  00000+0  44839-3 0  9992
2 67266  97.4134  96.0460 0015811 162.4624 197.7161 15.20264815  3259
2025-313V               
1 67267U 25313V   26018.93904246  .00011076  00000+0  51052-3 0  9996
2 67267  97.4116  96.0333 0015005 167.8758 192.2842 15.20337287  3251
ZORKY-2M 7              
1 67268U 25313W   26018.93999792  .00008634  00000+0  40009-3 0  9993
2 67268  97.4116  96.0304 0015978 163.2072 196.9695 15.20213232  3258
2025-313X               
1 67269U 25313X   26018.93847105  .00013380  00000+0  61406-3 0  9992
2 67269  97.4143  96.0495 0015770 161.7613 198.4191 15.20429199  3253
SITRO-TD-3              
1 67270U 25313Y   26018.94003748  .00010216  00000+0  47232-3 0  9998
2 67270  97.4116  96.0409 0015911 163.4387 196.7371 15.20242190  3259
2025-313Z               
1 67271U 25313Z   26018.94121008  .00005126  00000+0  24005-3 0  9996
2 67271  97.4109  96.0296 0015988 159.4991 200.6890 15.20048494  3258
2025-313AA              
1 67272U 25313AA  26018.93798919  .00011243  00000+0  51658-3 0  9998
2 67272  97.4116  96.0325 0015656 163.6948 196.4794 15.20434340  3255
2025-313AB              
1 67273U 25313AB  26018.94112933  .00003519  00000+0  16601-3 0  9992
2 67273  97.4127  96.0336 0014916 167.7535 192.4065 15.20022987  3252
2025-313AC              
1 67274U 25313AC  26018.93956064  .00007263  00000+0  33714-3 0  9997
2 67274  97.4104  96.0376 0015658 162.8268 197.3500 15.20214203  3257
2025-313AD              
1 67275U 25313AD  26018.93878014  .00007611  00000+0  35259-3 0  9999
2 67275  97.4079  96.0320 0014846 165.5693 194.5969 15.20277675  3258
2025-313AE              
1 67276U 25313AE  26018.93874902  .00007336  00000+0  33999-3 0  9995
2 67276  97.4083  96.0329 0014815 165.5934 194.5726 15.20275492  3253
2025-313AF              
1 67277U 25313AF  26018.93905854  .00006748  00000+0  31339-3 0  9999
2 67277  97.4085  96.0333 0014811 165.5679 194.5982 15.20236985  3251
2025-313AG              
1 67278U 25313AG  26018.93885190  .00006756  00000+0  31357-3 0  9999
2 67278  97.4088  96.0343 0014770 165.2993 194.8675 15.20254892  3266
GALAPAGOS-UTE-SWSU      
1 67279U 25313AH  26018.93804683  .00007848  00000+0  36276-3 0  9996
2 67279  97.4099  96.0383 0015322 162.4320 197.7448 15.20337062  3250
2025-313AJ              
1 67280U 25313AJ  26018.93341692  .00005589  00000+0  25734-3 0  9991
2 67280  97.4169  96.0514 0014253 159.2203 200.9615 15.20616534  3259
2025-313AK              
1 67281U 25313AK  26018.93214293  .00005647  00000+0  25941-3 0  9993
2 67281  97.4052  96.0313 0012976 158.0625 202.1169 15.20708678  3252
2025-313AL              
1 67282U 25313AL  26018.92698974  .00005885  00000+0  26731-3 0  9997
2 67282  97.4102  96.0399 0011742 157.0493 203.1270 15.21088874  3259
HORS 5                  
1 67283U 25313AM  26018.92582400  .00008636  00000+0  38900-3 0  9992
2 67283  97.4109  96.0440 0011624 156.9080 203.2680 15.21240417  3252
LOBACHEVSKY (RS83S)     
1 67284U 25313AN  26018.92725202  .00003707  00000+0  16991-3 0  9992
2 67284  97.4093  96.0373 0011635 156.9212 203.2548 15.21021673  3253
NASBSAT-2               
1 67285U 25313AP  26018.92487785  .00008253  00000+0  37134-3 0  9997
2 67285  97.4086  96.0380 0011244 158.2480 201.9236 15.21296503  3257
2025-313AQ              
1 67286U 25313AQ  26018.92432849  .00009141  00000+0  41106-3 0  9990
2 67286  97.4108  96.0534 0010940 153.2795 206.9007 15.21288033  3250
